FLOCK 4BE-17            
1 60492U 24149AA  26116.53045669  .00019509  00000+0  51895-3 0  9999
2 60492  97.3776 199.5531 0004461  97.9496 262.2255 15.38255587 94314
NUSAT-50 (NANCY ROMAN)  
1 60493U 24149AB  26116.48052120  .00011196  00000+0  40062-3 0  9992
2 60493  97.3790 198.1324 0003962  45.5844 314.5720 15.28945292 94223
FLOCK 4BE-22            
1 60494U 24149AC  26116.49234459  .00020311  00000+0  51749-3 0  9994
2 60494  97.3732 199.6282 0005066 103.1318 257.0493 15.39570692 94344
FLOCK 4BE-34            
1 60495U 24149AD  26116.51051060  .00020164  00000+0  51252-3 0  9998
2 60495  97.3781 200.4340 0005383 110.0836 250.0990 15.39642314 94378
TYCHE                   
1 60496U 24149AE  26116.45916752  .00005574  00000+0  22073-3 0  9997
2 60496  97.3761 194.9705 0004716 102.0450 258.1317 15.25821851 94014
FLOCK 4BE-32            
1 60497U 24149AF  26115.79336781  .00016775  00000+0  41710-3 0  9996
2 60497  97.3719 199.2283 0005304 109.9074 250.2745 15.40353946 94266
NUSAT-48 (HENRIETTA LE*)
1 60498U 24149AG  26116.48801654  .00012228  00000+0  42433-3 0  9992
2 60498  97.3901 198.2565 0005483 100.5999 259.5859 15.29919796 94236
FLOCK 4BE-30            
1 60499U 24149AH  26116.50351696  .00110014  00000+0  22420-2 0  9997
2 60499  97.3790 200.7459 0003599 167.2904 192.8437 15.45820230 93766
NUSAT-49 (KLARA DAN VO*)
1 60500U 24149AJ  26116.47031721  .00011484  00000+0  39834-3 0  9999
2 60500  97.3781 198.1075 0004299 110.4708 249.6994 15.29953851 94222
FLOCK 4BE-11            
1 60501U 24149AK  26116.53085757  .00022027  00000+0  53099-3 0  9999
2 60501  97.3700 200.1501 0005360 107.4491 252.7342 15.41237641 94393
FLOCK 4BE-33            
1 60502U 24149AL  26115.76384187  .00466893  84088-4  15861-2 0  9993
2 60502  97.3588 203.2101 0003857 216.9833 143.1175 15.89833689 94521
YAM-7                   
1 60504U 24149AN  26116.50404294  .00009289  00000+0  31174-3 0  9995
2 60504  97.3788 196.9918 0005043 112.7528 247.4246 15.31082833 94141
FLOCK 4BE-24            
1 60505U 24149AP  26115.67277345  .00019424  00000+0  47091-3 0  9995
2 60505  97.3717 199.5299 0005461 118.1449 242.0350 15.41090252 94277
LUR-1                   
1 60506U 24149AQ  26115.78293418  .00007304  00000+0  25875-3 0  9997
2 60506  97.3746 195.0173 0005581 122.6360 237.5420 15.29398305 93965
TANAGER-1               
1 60507U 24149AR  26115.81610594  .00014624  00000+0  31950-3 0  9994
2 60507  97.3468 209.7998 0007597 130.0750 230.1165 15.44257878 94951
EAGLEEYE                
1 60508U 24149AS  26116.24028683  .00076041  00000+0  83395-3 0  9996
2 60508  97.3728 207.0536 0003305 113.2757 246.8850 15.62991716 94808
